ONEWEB-0564             
1 55801U 23029F   26196.16539770  .00000017  00000+0  92811-5 0  9990
2 55801  87.9177 268.8765 0001767  90.9237 269.2099 13.20772279164843
ONEWEB-0638             
1 55802U 23029G   26196.17606187  .00000092  00000+0  21292-3 0  9995
2 55802  87.8961 284.1726 0001464 103.8107 256.3186 13.14504454163075
ONEWEB-0639             
1 55803U 23029H   26195.78084795  .00000053  00000+0  10013-3 0  9993
2 55803  87.9185 299.4812 0002618 120.1802 239.9590 13.19726342162540
ONEWEB-0640             
1 55804U 23029J   26196.18557718 -.00000118  00000+0 -35282-3 0  9998
2 55804  87.8961 284.1619 0001589 117.4229 242.7062 13.14502519163096
ONEWEB-0641             
1 55805U 23029K   26195.85192911  .00000035  00000+0  56058-4 0  9993
2 55805  87.9193 299.4579 0002149 104.7073 255.4298 13.19726759162560
ONEWEB-0642             
1 55806U 23029L   26196.22628856  .00000071  00000+0  14439-3 0  9994
2 55806  87.9187 299.3936 0002679 113.9555 246.1858 13.19726592162604
ONEWEB-0643             
1 55807U 23029M   26195.77486606  .00000241  00000+0  61431-3 0  9992
2 55807  87.8957 284.2310 0002657 107.6374 252.5046 13.14502309163012
ONEWEB-0644             
1 55808U 23029N   26196.22155168  .00000085  00000+0  17935-3 0  9996
2 55808  87.9184 299.3953 0002309 106.8224 253.3162 13.19726151162605
ONEWEB-0645             
1 55809U 23029P   26195.78876271  .00000019  00000+0  15420-4 0  9997
2 55809  87.9184 299.4788 0002023 115.3898 244.7444 13.19725789162544
ONEWEB-0646             
1 55810U 23029Q   26195.80612744  .00000043  00000+0  75563-4 0  9996
2 55810  87.9186 299.4754 0002258 105.8251 254.3131 13.19726847162533
ONEWEB-0648             
1 55811U 23029R   26195.74314128 -.00000117  00000+0 -35062-3 0  9998
2 55811  87.8967 284.2135 0002368 123.0802 237.0556 13.14503406163013
ONEWEB-0649             
1 55812U 23029S   26195.83139445 -.00000035  00000+0 -11897-3 0  9995
2 55812  87.9184 299.4684 0002043 108.7187 251.4168 13.19726680162574
ONEWEB-0650             
1 55813U 23029T   26195.82666020 -.00000039  00000+0 -12908-3 0  9997
2 55813  87.9183 299.4716 0002480 112.3410 247.7986 13.19726251162542
ONEWEB-0652             
1 55814U 23029U   26196.18082039 -.00000017  00000+0 -80984-4 0  9996
2 55814  87.8970 284.1329 0002003  95.5003 264.6355 13.14502706163044
ONEWEB-0653             
1 55815U 23029V   26195.78437239  .00000124  00000+0  29916-3 0  9992
2 55815  87.8972 284.2098 0001972 100.5037 259.6315 13.14501342163022
ONEWEB-0654             
1 55816U 23029W   26196.16020292  .00000219  00000+0  55607-3 0  9994
2 55816  87.8969 284.1314 0001805  91.0927 269.0410 13.14502254163097
